[{"OBJECT_NAME":"TEIKYOSAT-4 (OORURI)","OBJECT_ID":"2021-102B","EPOCH":"2026-03-09T16:12:29.535840","MEAN_MOTION":15.09119208,"ECCENTRICITY":0.00103447,"INCLINATION":97.3797,"RA_OF_ASC_NODE":101.9931,"ARG_OF_PERICENTER":276.5421,"MEAN_ANOMALY":83.463,"EPHEMERIS_TYPE":0,"CLASSIFICATION_TYPE":"U","NORAD_CAT_ID":49396,"ELEMENT_SET_NO":999,"REV_AT_EPOCH":23771,"BSTAR":0.00015739844,"MEAN_MOTION_DOT":2.438e-5,"MEAN_MOTION_DDOT":0},{"OBJECT_NAME":"STARLINK-5169","OBJECT_ID":"2022-136K","EPOCH":"2026-03-09T21:58:33.961440","MEAN_MOTION":15.08832508,"ECCENTRICITY":0.00014574,"INCLINATION":53.2191,"RA_OF_ASC_NODE":312.7664,"ARG_OF_PERICENTER":91.4758,"MEAN_ANOMALY":268.6401,"EPHEMERIS_TYPE":0,"CLASSIFICATION_TYPE":"U","NORAD_CAT_ID":54060,"ELEMENT_SET_NO":999,"REV_AT_EPOCH":18730,"BSTAR":6.7009844e-5,"MEAN_MOTION_DOT":7.78e-6,"MEAN_MOTION_DDOT":0}]
